[{"OBJECT_NAME":"KUIPER-00247","OBJECT_ID":"2025-301V","EPOCH":"2026-03-05T01:21:56.909952","MEAN_MOTION":15.36649864,"ECCENTRICITY":0.0014225,"INCLINATION":51.861,"RA_OF_ASC_NODE":88.3537,"ARG_OF_PERICENTER":43.7335,"MEAN_ANOMALY":316.4775,"EPHEMERIS_TYPE":0,"CLASSIFICATION_TYPE":"U","NORAD_CAT_ID":67152,"ELEMENT_SET_NO":999,"REV_AT_EPOCH":1301,"BSTAR":0.00094068,"MEAN_MOTION_DOT":0.0003406,"MEAN_MOTION_DDOT":0},{"OBJECT_NAME":"KUIPER-00248","OBJECT_ID":"2025-301W","EPOCH":"2026-03-05T02:09:04.236768","MEAN_MOTION":15.37233063,"ECCENTRICITY":0.0011105,"INCLINATION":51.866,"RA_OF_ASC_NODE":87.8675,"ARG_OF_PERICENTER":28.775,"MEAN_ANOMALY":331.3847,"EPHEMERIS_TYPE":0,"CLASSIFICATION_TYPE":"U","NORAD_CAT_ID":67153,"ELEMENT_SET_NO":999,"REV_AT_EPOCH":1319,"BSTAR":0.0011069,"MEAN_MOTION_DOT":0.00040903,"MEAN_MOTION_DDOT":0},{"OBJECT_NAME":"KUIPER-00249","OBJECT_ID":"2025-301X","EPOCH":"2026-03-04T19:16:06.073248","MEAN_MOTION":15.37894168,"ECCENTRICITY":0.0010528,"INCLINATION":51.8643,"RA_OF_ASC_NODE":88.9345,"ARG_OF_PERICENTER":28.4862,"MEAN_ANOMALY":331.6698,"EPHEMERIS_TYPE":0,"CLASSIFICATION_TYPE":"U","NORAD_CAT_ID":67154,"ELEMENT_SET_NO":999,"REV_AT_EPOCH":1298,"BSTAR":0.0011635,"MEAN_MOTION_DOT":0.00043962,"MEAN_MOTION_DDOT":0},{"OBJECT_NAME":"KUIPER-00250","OBJECT_ID":"2025-301Y","EPOCH":"2026-03-05T04:00:01.999584","MEAN_MOTION":14.98178203,"ECCENTRICITY":0.0009427,"INCLINATION":51.924,"RA_OF_ASC_NODE":90.4594,"ARG_OF_PERICENTER":38.3613,"MEAN_ANOMALY":45.3539,"EPHEMERIS_TYPE":0,"CLASSIFICATION_TYPE":"U","NORAD_CAT_ID":67155,"ELEMENT_SET_NO":999,"REV_AT_EPOCH":583,"BSTAR":-0.0066185,"MEAN_MOTION_DOT":-0.00078816,"MEAN_MOTION_DDOT":0},{"OBJECT_NAME":"KUIPER-00251","OBJECT_ID":"2025-301Z","EPOCH":"2026-03-04T07:11:10.694976","MEAN_MOTION":15.37379811,"ECCENTRICITY":0.00111876,"INCLINATION":51.8649,"RA_OF_ASC_NODE":91.5656,"ARG_OF_PERICENTER":28.0542,"MEAN_ANOMALY":332.1045,"EPHEMERIS_TYPE":0,"CLASSIFICATION_TYPE":"U","NORAD_CAT_ID":67156,"ELEMENT_SET_NO":999,"REV_AT_EPOCH":1309,"BSTAR":0.00072800465,"MEAN_MOTION_DOT":0.00026846,"MEAN_MOTION_DDOT":0},{"OBJECT_NAME":"KUIPER-00252","OBJECT_ID":"2025-301AA","EPOCH":"2026-03-04T09:10:02.076672","MEAN_MOTION":15.37128851,"ECCENTRICITY":0.00128446,"INCLINATION":51.8648,"RA_OF_ASC_NODE":91.3597,"ARG_OF_PERICENTER":33.3013,"MEAN_ANOMALY":326.8779,"EPHEMERIS_TYPE":0,"CLASSIFICATION_TYPE":"U","NORAD_CAT_ID":67157,"ELEMENT_SET_NO":999,"REV_AT_EPOCH":1291,"BSTAR":0.0019070023,"MEAN_MOTION_DOT":0.0007084,"MEAN_MOTION_DDOT":0},{"OBJECT_NAME":"KUIPER-00261","OBJECT_ID":"2025-301AB","EPOCH":"2026-03-05T04:00:01.999584","MEAN_MOTION":14.95233941,"ECCENTRICITY":0.001119,"INCLINATION":51.9265,"RA_OF_ASC_NODE":90.7321,"ARG_OF_PERICENTER":43.6948,"MEAN_ANOMALY":140.679,"EPHEMERIS_TYPE":0,"CLASSIFICATION_TYPE":"U","NORAD_CAT_ID":67158,"ELEMENT_SET_NO":999,"REV_AT_EPOCH":525,"BSTAR":-0.0098322,"MEAN_MOTION_DOT":-0.00108023,"MEAN_MOTION_DDOT":0},{"OBJECT_NAME":"KUIPER-00265","OBJECT_ID":"2025-301AC","EPOCH":"2026-03-05T01:53:55.300128","MEAN_MOTION":14.79925249,"ECCENTRICITY":8.52e-5,"INCLINATION":51.9021,"RA_OF_ASC_NODE":105.999,"ARG_OF_PERICENTER":67.8453,"MEAN_ANOMALY":292.26,"EPHEMERIS_TYPE":0,"CLASSIFICATION_TYPE":"U","NORAD_CAT_ID":67159,"ELEMENT_SET_NO":999,"REV_AT_EPOCH":1280,"BSTAR":0.00033477,"MEAN_MOTION_DOT":2.331e-5,"MEAN_MOTION_DDOT":0},{"OBJECT_NAME":"KUIPER-00159","OBJECT_ID":"2026-030A","EPOCH":"2026-03-04T22:43:12.669024","MEAN_MOTION":15.355214,"ECCENTRICITY":0.0004595,"INCLINATION":51.8845,"RA_OF_ASC_NODE":242.0357,"ARG_OF_PERICENTER":32.1989,"MEAN_ANOMALY":327.9277,"EPHEMERIS_TYPE":0,"CLASSIFICATION_TYPE":"U","NORAD_CAT_ID":67764,"ELEMENT_SET_NO":999,"REV_AT_EPOCH":436,"BSTAR":0.00084904,"MEAN_MOTION_DOT":0.000295,"MEAN_MOTION_DDOT":0},{"OBJECT_NAME":"KUIPER-00160","OBJECT_ID":"2026-030B","EPOCH":"2026-03-04T22:44:52.243296","MEAN_MOTION":15.35366175,"ECCENTRICITY":0.0004984,"INCLINATION":51.8814,"RA_OF_ASC_NODE":242.0361,"ARG_OF_PERICENTER":42.2492,"MEAN_ANOMALY":317.8878,"EPHEMERIS_TYPE":0,"CLASSIFICATION_TYPE":"U","NORAD_CAT_ID":67765,"ELEMENT_SET_NO":999,"REV_AT_EPOCH":436,"BSTAR":0.0010063,"MEAN_MOTION_DOT":0.00034888,"MEAN_MOTION_DDOT":0},{"OBJECT_NAME":"KUIPER-00177","OBJECT_ID":"2026-030C","EPOCH":"2026-03-04T22:27:42.598944","MEAN_MOTION":15.3630754,"ECCENTRICITY":0.000102,"INCLINATION":51.8829,"RA_OF_ASC_NODE":241.9638,"ARG_OF_PERICENTER":14.8865,"MEAN_ANOMALY":345.2152,"EPHEMERIS_TYPE":0,"CLASSIFICATION_TYPE":"U","NORAD_CAT_ID":67766,"ELEMENT_SET_NO":999,"REV_AT_EPOCH":436,"BSTAR":0.0010344,"MEAN_MOTION_DOT":0.00036981,"MEAN_MOTION_DDOT":0},{"OBJECT_NAME":"KUIPER-00178","OBJECT_ID":"2026-030D","EPOCH":"2026-03-04T22:47:18.991968","MEAN_MOTION":15.35312762,"ECCENTRICITY":0.0006032,"INCLINATION":51.8833,"RA_OF_ASC_NODE":242.0515,"ARG_OF_PERICENTER":32.8053,"MEAN_ANOMALY":327.3307,"EPHEMERIS_TYPE":0,"CLASSIFICATION_TYPE":"U","NORAD_CAT_ID":67767,"ELEMENT_SET_NO":999,"REV_AT_EPOCH":436,"BSTAR":0.00084162,"MEAN_MOTION_DOT":0.00029047,"MEAN_MOTION_DDOT":0},{"OBJECT_NAME":"KUIPER-00180","OBJECT_ID":"2026-030E","EPOCH":"2026-03-04T23:29:56.259168","MEAN_MOTION":15.32128168,"ECCENTRICITY":0.0014547,"INCLINATION":51.88,"RA_OF_ASC_NODE":242.2351,"ARG_OF_PERICENTER":54.7162,"MEAN_ANOMALY":305.5181,"EPHEMERIS_TYPE":0,"CLASSIFICATION_TYPE":"U","NORAD_CAT_ID":67768,"ELEMENT_SET_NO":999,"REV_AT_EPOCH":436,"BSTAR":0.0007438,"MEAN_MOTION_DOT":0.00023186,"MEAN_MOTION_DDOT":0},{"OBJECT_NAME":"KUIPER-00197","OBJECT_ID":"2026-030F","EPOCH":"2026-03-05T00:04:25.392288","MEAN_MOTION":15.36189546,"ECCENTRICITY":0.0001318,"INCLINATION":51.8832,"RA_OF_ASC_NODE":241.6633,"ARG_OF_PERICENTER":52.983,"MEAN_ANOMALY":307.1277,"EPHEMERIS_TYPE":0,"CLASSIFICATION_TYPE":"U","NORAD_CAT_ID":67769,"ELEMENT_SET_NO":999,"REV_AT_EPOCH":437,"BSTAR":0.0010702,"MEAN_MOTION_DOT":0.00038133,"MEAN_MOTION_DDOT":0},{"OBJECT_NAME":"KUIPER-00198","OBJECT_ID":"2026-030G","EPOCH":"2026-03-05T00:11:17.645568","MEAN_MOTION":15.35829425,"ECCENTRICITY":0.0003156,"INCLINATION":51.8812,"RA_OF_ASC_NODE":241.6899,"ARG_OF_PERICENTER":33.9716,"MEAN_ANOMALY":326.1472,"EPHEMERIS_TYPE":0,"CLASSIFICATION_TYPE":"U","NORAD_CAT_ID":67770,"ELEMENT_SET_NO":999,"REV_AT_EPOCH":437,"BSTAR":0.0010166,"MEAN_MOTION_DOT":0.00035777,"MEAN_MOTION_DDOT":0},{"OBJECT_NAME":"KUIPER-00199","OBJECT_ID":"2026-030H","EPOCH":"2026-03-04T23:08:13.654752","MEAN_MOTION":15.34147388,"ECCENTRICITY":0.0010273,"INCLINATION":51.8806,"RA_OF_ASC_NODE":242.1389,"ARG_OF_PERICENTER":47.7462,"MEAN_ANOMALY":312.4393,"EPHEMERIS_TYPE":0,"CLASSIFICATION_TYPE":"U","NORAD_CAT_ID":67771,"ELEMENT_SET_NO":999,"REV_AT_EPOCH":436,"BSTAR":0.00080798,"MEAN_MOTION_DOT":0.00026865,"MEAN_MOTION_DDOT":0},{"OBJECT_NAME":"KUIPER-00200","OBJECT_ID":"2026-030J","EPOCH":"2026-03-04T23:52:41.431008","MEAN_MOTION":15.36834943,"ECCENTRICITY":0.0001157,"INCLINATION":51.8806,"RA_OF_ASC_NODE":241.608,"ARG_OF_PERICENTER":219.9501,"MEAN_ANOMALY":140.1401,"EPHEMERIS_TYPE":0,"CLASSIFICATION_TYPE":"U","NORAD_CAT_ID":67772,"ELEMENT_SET_NO":999,"REV_AT_EPOCH":437,"BSTAR":0.00094012,"MEAN_MOTION_DOT":0.00034141,"MEAN_MOTION_DDOT":0}]
