KUIPER-00247            
1 67152U 25301V   26064.05690868  .00034060  00000+0  94068-3 0  9994
2 67152  51.8610  88.3537 0014225  43.7335 316.4775 15.36649864 13017
KUIPER-00248            
1 67153U 25301W   26064.08963237  .00040903  00000+0  11069-2 0  9993
2 67153  51.8660  87.8675 0011105  28.7750 331.3847 15.37233063 13194
KUIPER-00249            
1 67154U 25301X   26063.80284807  .00043962  00000+0  11635-2 0  9999
2 67154  51.8643  88.9345 0010528  28.4862 331.6698 15.37894168 12983
KUIPER-00250            
1 67155U 25301Y   26064.16668981 -.00078816  00000+0 -66185-2 0  9997
2 67155  51.9240  90.4594 0009427  38.3613  45.3539 14.98178203  5832
KUIPER-00251            
1 67156U 25301Z   26063.29942934  .00026846  00000+0  72800-3 0  9990
2 67156  51.8649  91.5656 0011187  28.0542 332.1045 15.37379811 13097
KUIPER-00252            
1 67157U 25301AA  26063.38196848  .00070840  00000+0  19070-2 0  9998
2 67157  51.8648  91.3597 0012844  33.3013 326.8779 15.37128851 12912
KUIPER-00261            
1 67158U 25301AB  26064.16668981 -.00108023  00000+0 -98322-2 0  9992
2 67158  51.9265  90.7321 0011190  43.6948 140.6790 14.95233941  5255
KUIPER-00265            
1 67159U 25301AC  26064.07911227  .00002331  00000+0  33477-3 0  9991
2 67159  51.9021 105.9990 0000852  67.8453 292.2600 14.79925249 12803
KUIPER-00159            
1 67764U 26030A   26063.94667441  .00029500  00000+0  84904-3 0  9992
2 67764  51.8845 242.0357 0004595  32.1989 327.9277 15.35521400  4367
KUIPER-00160            
1 67765U 26030B   26063.94782689  .00034888  00000+0  10063-2 0  9994
2 67765  51.8814 242.0361 0004984  42.2492 317.8878 15.35366175  4363
KUIPER-00177            
1 67766U 26030C   26063.93590971  .00036981  00000+0  10344-2 0  9993
2 67766  51.8829 241.9638 0001020  14.8865 345.2152 15.36307540  4364
KUIPER-00178            
1 67767U 26030D   26063.94952537  .00029047  00000+0  84162-3 0  9990
2 67767  51.8833 242.0515 0006032  32.8053 327.3307 15.35312762  4367
KUIPER-00180            
1 67768U 26030E   26063.97912337  .00023186  00000+0  74380-3 0  9997
2 67768  51.8800 242.2351 0014547  54.7162 305.5181 15.32128168  4366
KUIPER-00197            
1 67769U 26030F   26064.00307167  .00038133  00000+0  10702-2 0  9997
2 67769  51.8832 241.6633 0001318  52.9830 307.1277 15.36189546  4378
KUIPER-00198            
1 67770U 26030G   26064.00784312  .00035777  00000+0  10166-2 0  9995
2 67770  51.8812 241.6899 0003156  33.9716 326.1472 15.35829425  4370
KUIPER-00199            
1 67771U 26030H   26063.96404693  .00026865  00000+0  80798-3 0  9998
2 67771  51.8806 242.1389 0010273  47.7462 312.4393 15.34147388  4362
KUIPER-00200            
1 67772U 26030J   26063.99492397  .00034141  00000+0  94012-3 0  9990
2 67772  51.8806 241.6080 0001157 219.9501 140.1401 15.36834943  4372
